ESTCUBE 1               
1 39161U 13021C   21347.19552190  .00000285  00000+0  52490-4 0  9994
2 39161  97.9279  64.1732 0008438 304.7125  55.3287 14.72601166462054
FENGYUN 3C              
1 39260U 13052A   21347.06514182  .00000014  00000+0  27887-4 0  9995
2 39260  98.4779  19.4059 0012293  91.4145 268.8448 14.15888953425547
CASSIOPE                
1 39265U 13055A   21346.89425321  .00007377  00000+0  20099-3 0  9995
2 39265  80.9657 104.4748 0640695 149.2715 214.7694 14.34373835425554
ZACUBE-1 (TSHEPISOSAT)  
1 39417U 13066B   21347.48788759  .00000394  00000+0  55275-4 0  9996
2 39417  97.6139 322.7520 0057085 295.0093  64.5199 14.81713867435580
CINEMA-3 (KHUSAT-2)     
1 39426U 13066L   21346.83767598  .00000194  00000+0  37677-4 0  9996
2 39426  97.7789 290.1626 0105209 113.3182 247.9138 14.69793378431857
TRITON-1                
1 39427U 13066M   21347.26869382  .00000230  00000+0  43993-4 0  9998
2 39427  97.7961 286.4423 0113832 139.0682 221.9140 14.68413784431656
DELFI-N3XT              
1 39428U 13066N   21347.12172554  .00000411  00000+0  72024-4 0  9990
2 39428  97.7992 284.8082 0119639 152.6393 208.1182 14.68287297431364
GOMX-1                  
1 39430U 13066Q   21347.51394765  .00000311  00000+0  65399-4 0  9992
2 39430  97.8148 260.2979 0148835 271.0129  87.4011 14.59770856429169
BRITE-PL1 (LEM)         
1 39431U 13066R   21347.32464734  .00000092  00000+0  29126-4 0  9990
2 39431  97.7227 212.3029 0203315  85.2064 277.2313 14.47197073425643
ICUBE-1                 
1 39432U 13066S   21347.00734391  .00000303  00000+0  35581-4 0  9992
2 39432  97.4696 355.5972 0032016 164.4195 195.8017 14.91136868438128
HUMSAT-D                
1 39433U 13066T   21347.05411938  .00000747  00000+0  75916-4 0  9995
2 39433  97.4591   2.9483 0031132 141.7465 218.5972 14.93233645438574
VELOX-PII               
1 39438U 13066Y   21347.46721286  .00000375  00000+0  56525-4 0  9997
2 39438  97.6673 313.5982 0069776 343.4724  16.4213 14.78378331434654
FIRST-MOVE              
1 39439U 13066Z   21347.44801608  .00000808  00000+0  10264-3 0  9993
2 39439  97.6176 324.5855 0062945 291.9054  67.5476 14.82983467435564
CUBEBUG-2 (LO-74)       
1 39440U 13066AA  21347.45194859  .00000460  00000+0  69970-4 0  9992
2 39440  97.7016 308.2076 0080110  15.8635 344.5058 14.76420177434038
NEE-02 KRYSAOR          
1 39441U 13066AB  21347.44148409  .00000306  00000+0  50042-4 0  9991
2 39441  97.7120 305.4680 0082035  28.0173 332.5416 14.75310501433768
FUNCUBE-1 (AO-73)       
1 39444U 13066AE  21346.95547785  .00000421  00000+0  57316-4 0  9998
2 39444  97.6032 324.6352 0055994 285.9166  73.5882 14.82660955434478
HINCUBE                 
1 39445U 13066AF  21346.91647127  .00000426  00000+0  58184-4 0  9995
2 39445  97.6048 324.4351 0056071 288.1087  71.4025 14.82485623434009
UWE-3                   
1 39446U 13066AG  21347.45550966  .00000426  00000+0  62476-4 0  9999
2 39446  97.6609 314.9435 0068941 336.9153  22.8965 14.78967698433559
AIST-1 (RS-41)          
1 39492U 13078C   21347.48538934  .00000235  00000+0  22726-4 0  9999
2 39492  82.4207  54.5171 0020126   7.4041 352.7464 14.88134537432129
SPROUT                  
1 39770U 14029E   21347.53754911  .00000914  00000+0  10317-3 0  9992
2 39770  97.9298  98.8595 0008344 346.7578  13.3416 14.88984953409982
UNISAT-6                
1 40012U 14033C   21347.12502388  .00000251  00000+0  44030-4 0  9996
2 40012  97.6622 180.0660 0058890  43.2942 317.2873 14.74461473402521
BUGSAT-1 (TITA)         
1 40014U 14033E   21347.22722350 -.00000236  00000+0 -15100-4 0  9993
2 40014  98.1305 333.2926 0030310 294.9527  64.8559 14.95969300408296
DUCHIFAT-1              
1 40021U 14033M   21347.39183881  .00000871  00000+0  92425-4 0  9997
2 40021  97.9918 289.6708 0011526 298.6151  61.3907 14.91692221406956
NANOSATC-BR1            
1 40024U 14033Q   21347.06569000  .00000462  00000+0  52980-4 0  9993
2 40024  97.9675 283.6197 0010991 306.5620  53.4586 14.90734173406722
QB50P1                  
1 40025U 14033R   21346.77054671  .00000506  00000+0  58890-4 0  9999
2 40025  97.9458 278.0305 0011420 317.3289  42.7040 14.89686610405961
DTUSAT-2                
1 40030U 14033W   21346.76104431  .00000454  00000+0  54019-4 0  9995
2 40030  97.9259 274.0398 0010823 313.9608  46.0715 14.89215133405859
QB50P2                  
1 40032U 14033Y   21347.06500269  .00000383  00000+0  46491-4 0  9996
2 40032  97.9267 274.3539 0010737 314.1086  45.9247 14.89178197406393
POLYITAN-1              
1 40042U 14033AJ  21347.44750701  .00000609  00000+0  69810-4 0  9998
2 40042  97.9557 279.6850 0013454 305.1822  54.8134 14.89545299406460
TIGRISAT                
1 40043U 14033AK  21347.12384523  .00000192  00000+0  35123-4 0  9996
2 40043  97.6579 181.4291 0060576  40.9751 319.5987 14.74652443402460
AISAT                   
1 40054U 14034B   21346.93282889  .00000577  00000+0  86279-4 0  9994
2 40054  98.3403 146.2581 0012620 187.8308 172.2707 14.78721274401908
CANX-4                  
1 40055U 14034C   21347.36289114  .00000149  00000+0  30246-4 0  9999
2 40055  98.3300 133.5788 0013322 226.8909 133.1185 14.75144012401311
CANX-5                  
1 40056U 14034D   21346.89379090  .00000149  00000+0  30144-4 0  9997
2 40056  98.3300 133.0793 0013312 228.7065 131.2997 14.75136670392024
VELOX-I                 
1 40057U 14034E   21347.43018296  .00000527  00000+0  80096-4 0  9998
2 40057  98.3458 147.8788 0010461 199.6015 160.4798 14.78407237401981
METEOR-M 2              
1 40069U 14037A   21347.39384212 -.00000029  00000+0  58216-5 0  9991
2 40069  98.4462   8.5602 0006405 134.1936 225.9776 14.20693006385440
DX1                     
1 40071U 14037C   21347.42638325  .00000175  00000+0  29726-4 0  9999
2 40071  98.4305 201.6436 0008032 185.7334 174.3784 14.81593874401794
UKUBE-1                 
1 40074U 14037F   21347.45250428  .00000367  00000+0  50400-4 0  9995
2 40074  98.4051 213.1850 0004354 154.4139 205.7276 14.84761510402469
FIREBIRD 3              
1 40377U 15003B   21347.02772616  .00003445  00000+0  12222-3 0  9995
2 40377  99.1130 166.1671 0111979 294.0086  64.9457 15.24296849379982
FIREBIRD 4              
1 40378U 15003C   21347.06303663  .00003531  00000+0  12488-3 0  9992
2 40378  99.1136 166.3828 0111989 293.6494  65.3015 15.24362348379998
GRIFEX                  
1 40379U 15003D   21347.41726852  .00001956  00000+0  79784-4 0  9993
2 40379  99.1145 154.5331 0124248 329.4076  29.9947 15.19423440379358
CP10 (EXOCUBE)          
1 40380U 15003E   21347.03979804  .00001335  00000+0  59140-4 0  9995
2 40380  99.1174 147.7476 0130639 351.9009   8.0109 15.16914674378889
DEORBITSAIL             
1 40719U 15032E   21347.12888335  .00000492  00000+0  75711-4 0  9996
2 40719  97.8045 226.4998 0014844 248.0459 111.9174 14.77632175346368
NUDT-PHONESAT           
1 40900U 15049B   21347.51361089  .00004172  00000+0  15315-3 0  9993
2 40900  97.4138   0.6131 0009852 220.1575 292.2722 15.28462311346152
XW-2A                   
1 40903U 15049E   21347.51546816  .00003648  00000+0  73250-4 0  9999
2 40903  97.2124  41.4042 0013483  82.3483  24.8776 15.47232046350461
XW-2C                   
1 40906U 15049H   21347.52131023  .00001186  00000+0  62848-4 0  9999
2 40906  97.4902 347.7467 0012678 288.4512 188.8801 15.17290828344710
XW-2D                   
1 40907U 15049J   21347.54002154  .00001341  00000+0  69838-4 0  9993
2 40907  97.4898 347.6300 0012001 284.4730 193.5064 15.17685758344756
LILACSAT-2              
1 40908U 15049K   21347.52795177  .00000855  00000+0  49598-4 0  9996
2 40908  97.5115 345.1921 0014259 304.5226 172.7025 15.14762798344330
XW-2E                   
1 40909U 15049L   21347.52361240  .00001828  00000+0  86833-4 0  9991
2 40909  97.4676 351.8466 0011128 265.6273 249.3125 15.20455982345133
XW-2F                   
1 40910U 15049M   21347.52000911  .00001807  00000+0  87106-4 0  9999
2 40910  97.4743 350.9394 0012263 265.8684 248.3641 15.19951385344912
XW-2B                   
1 40911U 15049N   21347.55286031  .00001200  00000+0  63044-4 0  9994
2 40911  97.4894 348.2944 0012014 286.1065 191.0892 15.17594299344641
KAITUO 1B               
1 40912U 15049P   21347.54253873  .00002057  00000+0  91410-4 0  9991
2 40912  97.4430 355.3421 0012373 231.3557 289.7581 15.22614093345432
TIANWANG 1A (TW-1A)     
1 40928U 15051D   21347.57034793  .00006946  00000+0  13024-3 0  9997
2 40928  97.0627   8.3495 0008985   8.1026 148.3267 15.48913041349386
LAPAN-A2                
1 40931U 15052B   21347.11771532  .00000949  00000+0  42927-4 0  9993
2 40931   5.9974  58.1361 0013542  48.6215 311.5026 14.76711593335753
LQSAT                   
1 40958U 15057A   21347.44749180  .00000062  00000+0  16999-4 0  9993
2 40958  97.7790  36.7157 0017578 195.8178 164.2483 14.73224825332591
ATHENOXAT 1             
1 41168U 15077C   21347.46559542  .00002888  00000+0  10731-3 0  9997
2 41168  14.9926  23.8906 0010011 153.5751 252.0193 15.16846333331998
GALASSIA                
1 41170U 15077E   21347.42245938  .00002735  00000+0  99309-4 0  9997
2 41170  14.9903  14.6221 0011878 182.3456 177.6811 15.16929652332062
VELOX-II                
1 41171U 15077F   21347.50838011  .00002071  00000+0  75730-4 0  9992
2 41171  14.9917  78.6551 0008434  40.0501 320.0441 15.13281026331446
CHUBUSAT-2              
1 41338U 16012B   21346.80050741  .00000452  00000+0  28107-4 0  9992
2 41338  31.0019 131.6703 0013465 101.3863 258.8285 15.00721661319412
CHUBUSAT-3              
1 41339U 16012C   21347.40537585  .00000414  00000+0  25051-4 0  9999
2 41339  31.0103 124.8771 0013300 114.8203 245.3817 15.00854245319508
HORYU-4                 
1 41340U 16012D   21346.71674877  .00000778  00000+0  51001-4 0  9997
2 41340  31.0044 110.5229 0013550 143.8206 216.3349 15.02212150319611
